GLOBALSTAR M073         
1 37193U 10054F   24287.57543558 -.00000060  00000+0  24216-3 0  9992
2 37193  52.0036 126.0465 0000956  99.1846 278.9749 12.62271346646693
GLOBALSTAR M083         
1 37739U 11033A   24287.51214507 -.00000078  00000+0  14288-3 0  9996
2 37739  51.9855  75.3047 0000960  89.9645 301.0179 12.62266183615703
GLOBALSTAR M088         
1 37740U 11033B   24287.59149331 -.00000057  00000+0  26250-3 0  9997
2 37740  51.9752 340.7649 0000543  92.0942  60.6530 12.62263161611540
GLOBALSTAR M091         
1 37741U 11033C   24287.52805627 -.00000057  00000+0  25998-3 0  9996
2 37741  51.9997 304.0751 0000660  66.8292  95.5660 12.62268493612035
GLOBALSTAR M089         
1 37744U 11033F   24287.55629536 -.00000078  00000+0  14599-3 0  9993
2 37744  51.9923 212.1532 0000533  94.5686 316.1151 12.62270610613792
